$$SOE
2460721.500000000, A.D. 2025-Feb-15 00:00:00.0000, 1.403022429804881E+08, 4.270988201116884E+08, 1.306499707860174E+08,
2460728.500000000, A.D. 2025-Feb-22 00:00:00.0000, 1.303298837549173E+08, 4.294463048624846E+08, 1.320914932255882E+08,
2460735.500000000, A.D. 2025-Mar-01 00:00:00.0000, 1.202957033255612E+08, 4.315904300941803E+08, 1.334702485406129E+08,
2460742.500000000, A.D. 2025-Mar-08 00:00:00.0000, 1.102043458882727E+08, 4.335297551742590E+08, 1.347854496316467E+08,
2460749.500000000, A.D. 2025-Mar-15 00:00:00.0000, 1.000605059127992E+08, 4.352629427630638E+08, 1.360363397505892E+08,
2460756.500000000, A.D. 2025-Mar-22 00:00:00.0000, 8.986892330995329E+07, 4.367887608827393E+08, 1.372221934682364E+08,
2460763.500000000, A.D. 2025-Mar-29 00:00:00.0000, 7.963437989132959E+07, 4.381060826628106E+08, 1.383423173144473E+08,
2460770.500000000, A.D. 2025-Apr-05 00:00:00.0000, 6.936169744965389E+07, 4.392138868994112E+08, 1.393960503169383E+08,
2460777.500000000, A.D. 2025-Apr-12 00:00:00.0000, 5.905573553709983E+07, 4.401112595285103E+08, 1.403827646219255E+08,
2460784.500000000, A.D. 2025-Apr-19 00:00:00.0000, 4.872138875664426E+07, 4.407973951279821E+08, 1.413018661397104E+08,
2460791.500000000, A.D. 2025-Apr-26 00:00:00.0000, 3.836358384053198E+07, 4.412715982424729E+08, 1.421527951720587E+08,
2460798.500000000, A.D. 2025-May-03 00:00:00.0000, 2.798727663234329E+07, 4.415332845475615E+08, 1.429350270110531E+08,
2460805.500000000, A.D. 2025-May-10 00:00:00.0000, 1.759744900435156E+07, 4.415819818592723E+08, 1.436480725061283E+08,
2460812.500000000, A.D. 2025-May-17 00:00:00.0000, 7.199105750185610E+06, 4.414173309453298E+08, 1.442914785912459E+08,
2460819.500000000, A.D. 2025-May-24 00:00:00.0000, -3.202728369913401E+06, 4.410390860811796E+08, 1.448648287505737E+08,
2460826.500000000, A.D. 2025-May-31 00:00:00.0000, -1.360301101010446E+07, 4.404471156596019E+08, 1.453677434087767E+08,
2460833.500000000, A.D. 2025-Jun-07 00:00:00.0000, -2.399668444337158E+07, 4.396414040574399E+08, 1.457998803806321E+08,
2460840.500000000, A.D. 2025-Jun-14 00:00:00.0000, -3.437867994865496E+07, 4.386220540907439E+08, 1.461609355413849E+08,
2460847.500000000, A.D. 2025-Jun-21 00:00:00.0000, -4.474392315964444E+07, 4.373892867825804E+08, 1.464506433366691E+08,
2460854.500000000, A.D. 2025-Jun-28 00:00:00.0000, -5.508733724489564E+07, 4.359434402063804E+08, 1.466687769887245E+08,
2460861.500000000, A.D. 2025-Jul-05 00:00:00.0000, -6.540384543150106E+07, 4.342849695618464E+08, 1.468151487146606E+08,
2460868.500000000, A.D. 2025-Jul-12 00:00:00.0000, -7.568837405787796E+07, 4.324144476766672E+08, 1.468896099993936E+08,
2460875.500000000, A.D. 2025-Jul-19 00:00:00.0000, -8.593585596151796E+07, 4.303325653570955E+08, 1.468920518579354E+08,
2460882.500000000, A.D. 2025-Jul-26 00:00:00.0000, -9.614123398738198E+07, 4.280401315295863E+08, 1.468224050625920E+08,
2460889.500000000, A.D. 2025-Aug-02 00:00:00.0000, -1.062994645470520E+08, 4.255380731943671E+08, 1.466806403304849E+08,
2460896.500000000, A.D. 2025-Aug-09 00:00:00.0000, -1.164055212006209E+08, 4.228274351758646E+08, 1.464667684678462E+08,
2460903.500000000, A.D. 2025-Aug-16 00:00:00.0000, -1.264543981797303E+08, 4.199093796065831E+08, 1.461808404587606E+08,
2460910.500000000, A.D. 2025-Aug-23 00:00:00.0000, -1.364411135545191E+08, 4.167851851609920E+08, 1.458229474729235E+08,
2460917.500000000, A.D. 2025-Aug-30 00:00:00.0000, -1.463607117111293E+08, 4.134562467540429E+08, 1.453932208209476E+08,
2460924.500000000, A.D. 2025-Sep-06 00:00:00.0000, -1.562082665532113E+08, 4.099240767064084E+08, 1.448918320699041E+08,
2460931.500000000, A.D. 2025-Sep-13 00:00:00.0000, -1.659788870914310E+08, 4.061903048950068E+08, 1.443189932695257E+08,
2460938.500000000, A.D. 2025-Sep-20 00:00:00.0000, -1.756677221411194E+08, 4.022566762425406E+08, 1.436749568528610E+08,
2460945.500000000, A.D. 2025-Sep-27 00:00:00.0000, -1.852699630658093E+08, 3.981250486571825E+08, 1.429600153681394E+08,
2460952.500000000, A.D. 2025-Oct-04 00:00:00.0000, -1.947808465788686E+08, 3.937973919633885E+08, 1.421745012711947E+08,
2460959.500000000, A.D. 2025-Oct-11 00:00:00.0000, -2.041956579720401E+08, 3.892757868813517E+08, 1.413187867353224E+08,
2460966.500000000, A.D. 2025-Oct-18 00:00:00.0000, -2.135097344836196E+08, 3.845624237814533E+08, 1.403932834303687E+08,
2460973.500000000, A.D. 2025-Oct-25 00:00:00.0000, -2.227184686634752E+08, 3.796596012270693E+08, 1.393984422602359E+08,
2460980.500000000, A.D. 2025-Nov-01 00:00:00.0000, -2.318173116916483E+08, 3.745697243246911E+08, 1.383347530577336E+08,
2460987.500000000, A.D. 2025-Nov-08 00:00:00.0000, -2.408017766115096E+08, 3.692953028536530E+08, 1.372027442319558E+08,
2460994.500000000, A.D. 2025-Nov-15 00:00:00.0000, -2.496674413248363E+08, 3.638389491202837E+08, 1.360029823502573E+08,
2461001.500000000, A.D. 2025-Nov-22 00:00:00.0000, -2.584099509415437E+08, 3.582033757594673E+08, 1.347360716359944E+08,
2461008.500000000, A.D. 2025-Nov-29 00:00:00.0000, -2.670250196335044E+08, 3.523913946214895E+08, 1.334026534891030E+08,
2461015.500000000, A.D. 2025-Dec-06 00:00:00.0000, -2.755084342667586E+08, 3.464059166122436E+08, 1.320034062281725E+08,
2461022.500000000, A.D. 2025-Dec-13 00:00:00.0000, -2.838560593735963E+08, 3.402499491206074E+08, 1.305390447392315E+08,
2461029.500000000, A.D. 2025-Dec-20 00:00:00.0000, -2.920638399662795E+08, 3.339265920574086E+08, 1.290103197938800E+08,
2461036.500000000, A.D. 2025-Dec-27 00:00:00.0000, -3.001278032645010E+08, 3.274390350999351E+08, 1.274180173479608E+08,
2461043.500000000, A.D. 2026-Jan-03 00:00:00.0000, -3.080440607937434E+08, 3.207905555319639E+08, 1.257629579060792E+08,
2461050.500000000, A.D. 2026-Jan-10 00:00:00.0000, -3.158088107412840E+08, 3.139845160054488E+08, 1.240459958875196E+08,
2461057.500000000, A.D. 2026-Jan-17 00:00:00.0000, -3.234183403339663E+08, 3.070243621367689E+08, 1.222680189656314E+08,
2461064.500000000, A.D. 2026-Jan-24 00:00:00.0000, -3.308690281568758E+08, 2.999136199648545E+08, 1.204299473763767E+08,
2461071.500000000, A.D. 2026-Jan-31 00:00:00.0000, -3.381573463867002E+08, 2.926558932686250E+08, 1.185327331942832E+08,
2461078.500000000, A.D. 2026-Feb-07 00:00:00.0000, -3.452798628755719E+08, 2.852548606912080E+08, 1.165773595664198E+08,
2461085.500000000, A.D. 2026-Feb-14 00:00:00.0000, -3.522332428297740E+08, 2.777142726602135E+08, 1.145648398808082E+08,
2461092.500000000, A.D. 2026-Feb-21 00:00:00.0000, -3.590142496935729E+08, 2.700379486852164E+08, 1.124962168817953E+08,
2461099.500000000, A.D. 2026-Feb-28 00:00:00.0000, -3.656197463219931E+08, 2.622297761898862E+08, 1.103725619274430E+08,
2461106.500000000, A.D. 2026-Mar-07 00:00:00.0000, -3.720466985012380E+08, 2.542937089338692E+08, 1.081949744203717E+08,
2461113.500000000, A.D. 2026-Mar-14 00:00:00.0000, -3.782921780393842E+08, 2.462337626971189E+08, 1.059645809684713E+08,
2461120.500000000, A.D. 2026-Mar-21 00:00:00.0000, -3.843533636419631E+08, 2.380540111275260E+08, 1.036825343497024E+08,
2461127.500000000, A.D. 2026-Mar-28 00:00:00.0000, -3.902275415825366E+08, 2.297585827838253E+08, 1.013500125512490E+08,
2461134.500000000, A.D. 2026-Apr-04 00:00:00.0000, -3.959121067731031E+08, 2.213516584136917E+08, 9.896821786184317E+07,
2461141.500000000, A.D. 2026-Apr-11 00:00:00.0000, -4.014045639601256E+08, 2.128374681124110E+08, 9.653837596453023E+07,
2461148.500000000, A.D. 2026-Apr-18 00:00:00.0000, -4.067025288863621E+08, 2.042202883599082E+08, 9.406173501621711E+07,
2461155.500000000, A.D. 2026-Apr-25 00:00:00.0000, -4.118037293724642E+08, 1.955044389550129E+08, 9.153956471249686E+07,
2461162.500000000, A.D. 2026-May-02 00:00:00.0000, -4.167060062877744E+08, 1.866942798215020E+08, 8.897315533403987E+07,
2461169.500000000, A.D. 2026-May-09 00:00:00.0000, -4.214073142860440E+08, 1.777942076239435E+08, 8.636381675922915E+07,
2461176.500000000, A.D. 2026-May-16 00:00:00.0000, -4.259057219284635E+08, 1.688086523360269E+08, 8.371287742110151E+07,
2461183.500000000, A.D. 2026-May-23 00:00:00.0000, -4.301994111423935E+08, 1.597420747879742E+08, 8.102168328861070E+07,
2461190.500000000, A.D. 2026-May-30 00:00:00.0000, -4.342866780949391E+08, 1.505989655166174E+08, 7.829159709006524E+07,
2461197.500000000, A.D. 2026-Jun-06 00:00:00.0000, -4.381659357998453E+08, 1.413838416492206E+08, 7.552399754141414E+07,
2461204.500000000, A.D. 2026-Jun-13 00:00:00.0000, -4.418357147906076E+08, 1.321012420242060E+08, 7.272027825995713E+07,
2461211.500000000, A.D. 2026-Jun-20 00:00:00.0000, -4.452946623591141E+08, 1.227557234760678E+08, 6.988184664881317E+07,
2461218.500000000, A.D. 2026-Jun-27 00:00:00.0000, -4.485415420607401E+08, 1.133518579451645E+08, 6.701012288131280E+07,
2461225.500000000, A.D. 2026-Jul-04 00:00:00.0000, -4.515752334908344E+08, 1.038942296404203E+08, 6.410653892378668E+07,
2461232.500000000, A.D. 2026-Jul-11 00:00:00.0000, -4.543947320827420E+08, 9.438743212733211E+07, 6.117253756424524E+07,
2461239.500000000, A.D. 2026-Jul-18 00:00:00.0000, -4.569991488376412E+08, 8.483606537138245E+07, 5.820957144168149E+07,
2461246.500000000, A.D. 2026-Jul-25 00:00:00.0000, -4.593877099640451E+08, 7.524473274352103E+07, 5.521910207481350E+07,
2461253.500000000, A.D. 2026-Aug-01 00:00:00.0000, -4.615597563808230E+08, 6.561803794298372E+07, 5.220259888261566E+07,
2461260.500000000, A.D. 2026-Aug-08 00:00:00.0000, -4.635147428707209E+08, 5.596058180448263E+07, 4.916153817467786E+07,
2461267.500000000, A.D. 2026-Aug-15 00:00:00.0000, -4.652522364711766E+08, 4.627695944270260E+07, 4.609740211084218E+07,
2461274.500000000, A.D. 2026-Aug-22 00:00:00.0000, -4.667719148654472E+08, 3.657175895743749E+07, 4.301167780047411E+07,
2461281.500000000, A.D. 2026-Aug-29 00:00:00.0000, -4.680735670663320E+08, 2.684956032825381E+07, 3.990585663999593E+07,
2461288.500000000, A.D. 2026-Sep-05 00:00:00.0000, -4.691570942632514E+08, 1.711493163305829E+07, 3.678143345960136E+07,
$$EOE